     2.10           G: GLONASS NAV DATA                     RINEX VERSION / TYPE
teqc  2015Jun23                         20210528 02:25:48UTCPGM / RUN BY / DATE
Linux 2.4.21-27.ELsmp|Opteron|gcc -static|Linux x86_64|=+   COMMENT
  2021     5     4    1.536682248116D-08                    CORR TO SYSTEM TIME
                                                            END OF HEADER
 6 21  5  5 12 15  0.0 1.974059268832D-04 0.000000000000D+00 4.320000000000D+04
    7.430882812500D+03 1.935358047485D-01-1.862645149231D-09 0.000000000000D+00
    2.026352832031D+04 1.855865478516D+00 0.000000000000D+00-4.000000000000D+00
   -1.361615234375D+04 2.866164207458D+00 1.862645149231D-09 0.000000000000D+00
 4 21  5  5 12 15  0.0 8.542276918888D-05 1.818989403546D-12 4.320000000000D+04
   -8.947398437500D+03 5.178070068359D-02-9.313225746155D-10 0.000000000000D+00
    1.375861865234D+04-2.672442436218D+00 1.862645149231D-09 6.000000000000D+00
    1.956139306641D+04 1.906077384949D+00-9.313225746155D-10 0.000000000000D+00
 9 21  5  5 12 15  0.0-8.665956556797D-06 1.818989403546D-12 4.320000000000D+04
    1.762409423828D+04-1.207578659058D+00-9.313225746155D-10 0.000000000000D+00
    1.519609716797D+04-7.554292678833D-01-0.000000000000D+00-2.000000000000D+00
   -1.034956933594D+04-3.167410850525D+00 1.862645149231D-09 0.000000000000D+00
16 21  5  5 12 15  0.0-1.470092684031D-05 0.000000000000D+00 4.320000000000D+04
    3.140831542969D+03-2.585912704468D+00-9.313225746155D-10 0.000000000000D+00
    1.339619238281D+04-1.393449783325D+00-0.000000000000D+00-1.000000000000D+00
   -2.153146435547D+04-1.233601570129D+00 2.793967723846D-09 0.000000000000D+00
18 21  5  5 12 15  0.0 7.543899118900D-05 9.094947017729D-13 4.320000000000D+04
   -2.207724853516D+04 1.683883666992D-01-9.313225746155D-10 0.000000000000D+00
    1.283462060547D+04 1.864728927612D-01 2.793967723846D-09-3.000000000000D+00
   -3.568627929688D+02-3.601930618286D+00 0.000000000000D+00 0.000000000000D+00
19 21  5  5 12 15  0.0-1.424914225936D-04-9.094947017729D-13 4.320000000000D+04
   -1.390650830078D+04-1.691837310791D+00-9.313225746155D-10 0.000000000000D+00
    1.532360546875D+04 1.168317794800D+00 2.793967723846D-09 3.000000000000D+00
    1.491289501953D+04-2.777071952820D+00-0.000000000000D+00 0.000000000000D+00
 5 21  5  5 12 45  0.0 7.117353379726D-05 9.094947017729D-13 4.500000000000D+04
   -2.140193847656D+03-7.192420959473D-02-9.313225746155D-10 0.000000000000D+00
    2.266583300781D+04-1.583689689636D+00 2.793967723846D-09 1.000000000000D+00
    1.154194433594D+04 3.099090576172D+00-0.000000000000D+00 0.000000000000D+00
 6 21  5  5 12 45  0.0 1.974077895284D-04 0.000000000000D+00 4.500000000000D+04
    7.927963867188D+03 3.207998275757D-01-1.862645149231D-09 0.000000000000D+00
    2.290091552734D+04 1.054179191589D+00 9.313225746155D-10-4.000000000000D+00
   -7.997900390625D+03 3.335853576660D+00 1.862645149231D-09 0.000000000000D+00
 4 21  5  5 12 45  0.0 8.542649447918D-05 1.818989403546D-12 4.500000000000D+04
   -9.246692871094D+03-3.972835540771D-01-0.000000000000D+00 0.000000000000D+00
    8.605076171875D+03-3.005130767822D+00 1.862645149231D-09 6.000000000000D+00
    2.219444677734D+04 1.000665664673D+00-9.313225746155D-10 0.000000000000D+00
 9 21  5  5 12 45  0.0-8.664093911648D-06 1.818989403546D-12 4.500000000000D+04
    1.475009326172D+04-1.972564697266D+00-9.313225746155D-10 0.000000000000D+00
    1.373481835938D+04-8.263273239136D-01-0.000000000000D+00-2.000000000000D+00
   -1.557495019531D+04-2.600735664368D+00 1.862645149231D-09 0.000000000000D+00
16 21  5  5 12 45  0.0-1.470092684031D-05-0.000000000000D+00 4.500000000000D+04
   -1.866973632812D+03-2.936235427856D+00-9.313225746155D-10 0.000000000000D+00
    1.115213476562D+04-1.072203636169D+00 0.000000000000D+00-1.000000000000D+00
   -2.289490917969D+04-2.712211608887D-01 1.862645149231D-09 0.000000000000D+00
18 21  5  5 12 45  0.0 7.544178515673D-05 9.094947017729D-13 4.500000000000D+04
   -2.111214306641D+04 8.735446929932D-01-9.313225746155D-10 0.000000000000D+00
    1.268331689453D+04-3.847303390503D-01 1.862645149231D-09-3.000000000000D+00
   -6.743095214844D+03-3.447947502136D+00 9.313225746155D-10 0.000000000000D+00
19 21  5  5 12 45  0.0-1.424942165613D-04-9.094947017729D-13 4.500000000000D+04
   -1.623840332031D+04-8.952531814575D-01-9.313225746155D-10 0.000000000000D+00
    1.727922705078D+04 9.586410522461D-01 2.793967723846D-09 3.000000000000D+00
    9.402151367188D+03-3.306208610535D+00-0.000000000000D+00 0.000000000000D+00
16 21  5  5 13 15  0.0-1.470185816288D-05-0.000000000000D+00 4.680000000000D+04
   -7.261963867188D+03-3.008540153503D+00-9.313225746155D-10 0.000000000000D+00
    9.608332031250D+03-6.314773559570D-01 0.000000000000D+00-1.000000000000D+00
   -2.249401904297D+04 7.141475677490D-01 1.862645149231D-09 0.000000000000D+00
 5 21  5  5 13 15  0.0 7.117446511984D-05 9.094947017729D-13 4.680000000000D+04
   -2.630568847656D+03-4.980382919312D-01-0.000000000000D+00 0.000000000000D+00
    1.920988476562D+04-2.218136787415D+00 2.793967723846D-09 1.000000000000D+00
    1.660308349609D+04 2.487982749939D+00-0.000000000000D+00 0.000000000000D+00
 6 21  5  5 13 15  0.0 1.974096521735D-04 0.000000000000D+00 4.680000000000D+04
    8.441000000000D+03 2.082834243774D-01-9.313225746155D-10 0.000000000000D+00
    2.401893164062D+04 1.867151260376D-01 1.862645149231D-09-4.000000000000D+00
   -1.762036132812D+03 3.547950744629D+00 9.313225746155D-10 0.000000000000D+00
 9 21  5  5 13 15  0.0-8.661299943924D-06 1.818989403546D-12 4.680000000000D+04
    1.060299218750D+04-2.604613304138D+00-9.313225746155D-10 0.000000000000D+00
    1.236326220703D+04-6.620588302612D-01 0.000000000000D+00-2.000000000000D+00
   -1.959098388672D+04-1.832533836365D+00 2.793967723846D-09 0.000000000000D+00
18 21  5  5 13 15  0.0 7.544457912445D-05 9.094947017729D-13 4.680000000000D+04
   -1.906573828125D+04 1.357911109924D+00-0.000000000000D+00 0.000000000000D+00
    1.136859667969D+04-1.090020179749D+00 1.862645149231D-09-3.000000000000D+00
   -1.260949365234D+04-3.028019905090D+00 9.313225746155D-10 0.000000000000D+00
19 21  5  5 13 15  0.0-1.424970105290D-04-9.094947017729D-13 4.680000000000D+04
   -1.715118115234D+04-1.345977783203D-01-9.313225746155D-10 0.000000000000D+00
    1.861557324219D+04 4.852981567383D-01 2.793967723846D-09 3.000000000000D+00
    3.164354492188D+03-3.579663276672D+00 0.000000000000D+00 0.000000000000D+00
20 21  5  5 13 15  0.0-4.856009036303D-05-0.000000000000D+00 4.701000000000D+04
   -3.502029296875D+03-1.859818458557D+00-0.000000000000D+00 0.000000000000D+00
    1.564914746094D+04 1.991679191589D+00 2.793967723846D-09 2.000000000000D+00
    1.985764062500D+04-1.893428802490D+00-9.313225746155D-10 0.000000000000D+00
 7 21  5  5 13 15  0.0-4.250742495060D-05-0.000000000000D+00 4.704000000000D+04
    1.254456250000D+04 7.547206878662D-01-9.313225746155D-10 0.000000000000D+00
    1.417002636719D+04 2.224554061890D+00 0.000000000000D+00 5.000000000000D+00
   -1.708265234375D+04 2.389483451843D+00 1.862645149231D-09 0.000000000000D+00
16 21  5  5 13 45  0.0-1.470278948545D-05-0.000000000000D+00 4.860000000000D+04
   -1.251592919922D+04-2.779417037964D+00-0.000000000000D+00 0.000000000000D+00
    8.888770507812D+03-1.742067337036D-01 9.313225746155D-10-1.000000000000D+00
   -2.035579101562D+04 1.646608352661D+00 1.862645149231D-09 0.000000000000D+00
 5 21  5  5 13 45  0.0 7.117632776499D-05 9.094947017729D-13 4.860000000000D+04
   -3.995394042969D+03-1.027205467224D+00 0.000000000000D+00 0.000000000000D+00
    1.483758789062D+04-2.592227935791D+00 2.793967723846D-09 1.000000000000D+00
    2.038328808594D+04 1.685044288635D+00-9.313225746155D-10 0.000000000000D+00
 6 21  5  5 13 45  0.0 1.974105834961D-04 0.000000000000D+00 4.860000000000D+04
    8.535802246094D+03-1.393938064575D-01-9.313225746155D-10 0.000000000000D+00
    2.360290869141D+04-6.313877105713D-01 1.862645149231D-09-4.000000000000D+00
    4.609899902344D+03 3.486057281494D+00 0.000000000000D+00 0.000000000000D+00
 7 21  5  5 13 45  0.0-4.250742495060D-05 0.000000000000D+00 4.860000000000D+04
    1.397759033203D+04 7.968273162842D-01-9.313225746155D-10 0.000000000000D+00
    1.752075439453D+04 1.477929115295D+00 9.313225746155D-10 5.000000000000D+00
   -1.217607031250D+04 3.026699066162D+00 1.862645149231D-09 0.000000000000D+00
 9 21  5  5 13 45  0.0-8.658505976200D-06 1.818989403546D-12 4.860000000000D+04
    5.509682617188D+03-3.010799407959D+00-9.313225746155D-10 0.000000000000D+00
    1.145876220703D+04-3.199186325073D-01 0.000000000000D+00-2.000000000000D+00
   -2.208700292969D+04-9.229145050049D-01 2.793967723846D-09 0.000000000000D+00
18 21  5  5 13 45  0.0 7.544737309217D-05 9.094947017729D-13 4.860000000000D+04
   -1.638732226562D+04 1.571070671082D+00-0.000000000000D+00 0.000000000000D+00
    8.743128417969D+03-1.821862220764D+00 9.313225746155D-10-3.000000000000D+00
   -1.750323535156D+04-2.374147415161D+00 9.313225746155D-10 0.000000000000D+00
19 21  5  5 13 45  0.0-1.424998044968D-04-9.094947017729D-13 4.860000000000D+04
   -1.681037109375D+04 4.813051223755D-01-0.000000000000D+00 0.000000000000D+00
    1.889888037109D+04-1.991214752197D-01 2.793967723846D-09 3.000000000000D+00
   -3.318124023438D+03-3.576319694519D+00 0.000000000000D+00 0.000000000000D+00
20 21  5  5 13 45  0.0-4.856102168560D-05-0.000000000000D+00 4.860000000000D+04
   -6.251301757812D+03-1.187576293945D+00-0.000000000000D+00 0.000000000000D+00
    1.911327441406D+04 1.808490753174D+00 2.793967723846D-09 2.000000000000D+00
    1.572739501953D+04-2.665937423706D+00-0.000000000000D+00 0.000000000000D+00
16 21  5  5 14 15  0.0-1.470465213060D-05-9.094947017729D-13 5.040000000000D+04
   -1.709946533203D+04-2.271080017090D+00 0.000000000000D+00 0.000000000000D+00
    8.928226562500D+03 1.953630447388D-01 9.313225746155D-10-1.000000000000D+00
   -1.664166601562D+04 2.453646659851D+00 9.313225746155D-10 0.000000000000D+00
